start=new Date('2022-12-29T00:00:00.000Z').valueOf();
sats=[{"CENTER_NAME":"EARTH","SITE":"AFETR","COUNTRY_CODE":"US","EPHEMERIS_TYPE":"0","MEAN_ANOMALY":"260.2147","APOAPSIS":"326.975","EPOCH":"2022-12-29T00:00:00.999648","PERIAPSIS":"324.543","TLE_LINE1":"1 54782U 22175AA  22363.00001157 -.00906682  00000-0 -49109-2 0  9991","GP_ID":"221672391","MEAN_MOTION_DOT":"-0.00906682","TIME_SYSTEM":"UTC","TLE_LINE2":"2 54782  53.2175 250.5689 0001814  28.4431 260.2147 15.81656202  1494","ARG_OF_PERICENTER":"28.4431","CLASSIFICATION_TYPE":"U","BSTAR":"-0.00491090000000","RA_OF_ASC_NODE":"250.5689","DECAY_DATE":null,"MEAN_ELEMENT_THEORY":"SGP4","REV_AT_EPOCH":"149","MEAN_MOTION":"15.81656202","MEAN_MOTION_DDOT":"0.0000000000000","INCLINATION":"53.2175","ELEMENT_SET_NO":"999","OBJECT_ID":"2022-175AA","FILE":"3725034","REF_FRAME":"TEME","ECCENTRICITY":"0.00018140","LAUNCH_DATE":"2022-12-17","SEMIMAJOR_AXIS":"6703.894","PERIOD":"91.044","NORAD_CAT_ID":"54782","RCS_SIZE":null,"OBJECT_TYPE":"PAYLOAD","OBJECT_NAME":"STARLINK-5437"},{"NORAD_CAT_ID":"54783","PERIOD":"91.425","OBJECT_TYPE":"PAYLOAD","OBJECT_NAME":"STARLINK-5439","RCS_SIZE":null,"MEAN_MOTION_DDOT":"0.0000000000000","INCLINATION":"53.2172","MEAN_ELEMENT_THEORY":"SGP4","DECAY_DATE":null,"REV_AT_EPOCH":"130","MEAN_MOTION":"15.75053361","FILE":"3725038","REF_FRAME":"TEME","ECCENTRICITY":"0.00012050","LAUNCH_DATE":"2022-12-17","SEMIMAJOR_AXIS":"6722.616","ELEMENT_SET_NO":"999","OBJECT_ID":"2022-175AB","TIME_SYSTEM":"UTC","TLE_LINE2":"2 54783  53.2172 251.1857 0001205  64.4791   6.7697 15.75053361  1302","MEAN_MOTION_DOT":"-0.01214830","RA_OF_ASC_NODE":"251.1857","ARG_OF_PERICENTER":"64.4791","CLASSIFICATION_TYPE":"U","BSTAR":"-0.00902400000000","MEAN_ANOMALY":"6.7697","APOAPSIS":"345.291","CENTER_NAME":"EARTH","SITE":"AFETR","COUNTRY_CODE":"US","EPHEMERIS_TYPE":"0","GP_ID":"221698358","PERIAPSIS":"343.671","EPOCH":"2022-12-28T22:00:00.999936","TLE_LINE1":"1 54783U 22175AB  22362.91667824 -.01214830  00000-0 -90240-2 0  9990"},{"TLE_LINE1":"1 54784U 22175AC  22362.91667824 -.01194198  00000-0 -88447-2 0  9991","EPOCH":"2022-12-28T22:00:00.999936","PERIAPSIS":"343.703","GP_ID":"221697739","COUNTRY_CODE":"US","SITE":"AFETR","EPHEMERIS_TYPE":"0","CENTER_NAME":"EARTH","MEAN_ANOMALY":"345.0197","APOAPSIS":"345.159","BSTAR":"-0.00884470000000","CLASSIFICATION_TYPE":"U","ARG_OF_PERICENTER":"87.3446","RA_OF_ASC_NODE":"251.1842","MEAN_MOTION_DOT":"-0.01194198","TIME_SYSTEM":"UTC","TLE_LINE2":"2 54784  53.2173 251.1842 0001083  87.3446 345.0197 15.75071117  1306","OBJECT_ID":"2022-175AC","ELEMENT_SET_NO":"999","ECCENTRICITY":"0.00010830","LAUNCH_DATE":"2022-12-17","SEMIMAJOR_AXIS":"6722.566","FILE":"3725038","REF_FRAME":"TEME","MEAN_MOTION":"15.75071117","DECAY_DATE":null,"MEAN_ELEMENT_THEORY":"SGP4","REV_AT_EPOCH":"130","INCLINATION":"53.2173","MEAN_MOTION_DDOT":"0.0000000000000","RCS_SIZE":null,"OBJECT_NAME":"STARLINK-5442","OBJECT_TYPE":"PAYLOAD","PERIOD":"91.424","NORAD_CAT_ID":"54784"},{"MEAN_ELEMENT_THEORY":"SGP4","DECAY_DATE":null,"REV_AT_EPOCH":"130","MEAN_MOTION":"15.82429626","INCLINATION":"53.2174","MEAN_MOTION_DDOT":"0.0000000000000","ELEMENT_SET_NO":"999","OBJECT_ID":"2022-175AD","FILE":"3725038","REF_FRAME":"TEME","ECCENTRICITY":"0.00011920","LAUNCH_DATE":"2022-12-17","SEMIMAJOR_AXIS":"6701.709","PERIOD":"90.999","NORAD_CAT_ID":"54785","RCS_SIZE":null,"OBJECT_TYPE":"PAYLOAD","OBJECT_NAME":"STARLINK-5440","CENTER_NAME":"EARTH","COUNTRY_CODE":"US","SITE":"AFETR","EPHEMERIS_TYPE":"0","MEAN_ANOMALY":"54.5680","APOAPSIS":"324.373","EPOCH":"2022-12-28T22:00:00.999936","PERIAPSIS":"322.775","TLE_LINE1":"1 54785U 22175AD  22362.91667824 -.00911355  00000-0 -47636-2 0  9998","GP_ID":"221697515","MEAN_MOTION_DOT":"-0.00911355","TIME_SYSTEM":"UTC","TLE_LINE2":"2 54785  53.2174 250.9898 0001192 115.0415  54.5680 15.82429626  1301","ARG_OF_PERICENTER":"115.0415","CLASSIFICATION_TYPE":"U","BSTAR":"-0.00476360000000","RA_OF_ASC_NODE":"250.9898"},{"OBJECT_TYPE":"PAYLOAD","OBJECT_NAME":"STARLINK-5438","RCS_SIZE":null,"NORAD_CAT_ID":"54786","PERIOD":"91.420","REF_FRAME":"TEME","FILE":"3725038","LAUNCH_DATE":"2022-12-17","SEMIMAJOR_AXIS":"6722.331","ECCENTRICITY":"0.00014250","ELEMENT_SET_NO":"999","OBJECT_ID":"2022-175AE","MEAN_MOTION_DDOT":"0.0000000000000","INCLINATION":"53.2172","REV_AT_EPOCH":"130","MEAN_ELEMENT_THEORY":"SGP4","DECAY_DATE":null,"MEAN_MOTION":"15.75153672","RA_OF_ASC_NODE":"251.1785","ARG_OF_PERICENTER":"41.0019","CLASSIFICATION_TYPE":"U","BSTAR":"-0.00879390000000","TLE_LINE2":"2 54786  53.2172 251.1785 0001425  41.0019  34.1229 15.75153672  1305","TIME_SYSTEM":"UTC","MEAN_MOTION_DOT":"-0.01192120","GP_ID":"221698568","PERIAPSIS":"343.238","EPOCH":"2022-12-28T22:00:00.999936","TLE_LINE1":"1 54786U 22175AE  22362.91667824 -.01192120  00000-0 -87939-2 0  9991","APOAPSIS":"345.154","MEAN_ANOMALY":"34.1229","CENTER_NAME":"EARTH","EPHEMERIS_TYPE":"0","SITE":"AFETR","COUNTRY_CODE":"US"},{"TLE_LINE1":"1 54787U 22175AF  22362.91667824 -.01219938  00000-0 -90482-2 0  9996","EPOCH":"2022-12-28T22:00:00.999936","PERIAPSIS":"343.972","GP_ID":"221698769","SITE":"AFETR","COUNTRY_CODE":"US","EPHEMERIS_TYPE":"0","CENTER_NAME":"EARTH","MEAN_ANOMALY":"9.4291","APOAPSIS":"344.685","BSTAR":"-0.00904820000000","CLASSIFICATION_TYPE":"U","ARG_OF_PERICENTER":"63.4792","RA_OF_ASC_NODE":"251.1825","MEAN_MOTION_DOT":"-0.01219938","TIME_SYSTEM":"UTC","TLE_LINE2":"2 54787  53.2173 251.1825 0000530  63.4792   9.4291 15.75107140  1307","OBJECT_ID":"2022-175AF","ELEMENT_SET_NO":"999","ECCENTRICITY":"0.00005300","SEMIMAJOR_AXIS":"6722.463","LAUNCH_DATE":"2022-12-17","FILE":"3725038","REF_FRAME":"TEME","MEAN_MOTION":"15.75107140","DECAY_DATE":null,"MEAN_ELEMENT_THEORY":"SGP4","REV_AT_EPOCH":"130","INCLINATION":"53.2173","MEAN_MOTION_DDOT":"0.0000000000000","RCS_SIZE":null,"OBJECT_NAME":"STARLINK-5441","OBJECT_TYPE":"PAYLOAD","PERIOD":"91.422","NORAD_CAT_ID":"54787"},{"MEAN_MOTION_DDOT":"0.0000000000000","INCLINATION":"53.2173","REV_AT_EPOCH":"130","MEAN_ELEMENT_THEORY":"SGP4","DECAY_DATE":null,"MEAN_MOTION":"15.75187008","REF_FRAME":"TEME","FILE":"3725038","LAUNCH_DATE":"2022-12-17","SEMIMAJOR_AXIS":"6722.236","ECCENTRICITY":"0.00011240","ELEMENT_SET_NO":"999","OBJECT_ID":"2022-175AG","NORAD_CAT_ID":"54788","PERIOD":"91.418","OBJECT_TYPE":"PAYLOAD","OBJECT_NAME":"STARLINK-5399","RCS_SIZE":null,"APOAPSIS":"344.857","MEAN_ANOMALY":"2.5807","CENTER_NAME":"EARTH","EPHEMERIS_TYPE":"0","SITE":"AFETR","COUNTRY_CODE":"US","GP_ID":"221697306","PERIAPSIS":"343.346","EPOCH":"2022-12-28T22:00:00.999936","TLE_LINE1":"1 54788U 22175AG  22362.91667824 -.01189951  00000-0 -87642-2 0  9992","TLE_LINE2":"2 54788  53.2173 251.1764 0001124  73.6419   2.5807 15.75187008  1307","TIME_SYSTEM":"UTC","MEAN_MOTION_DOT":"-0.01189951","RA_OF_ASC_NODE":"251.1764","ARG_OF_PERICENTER":"73.6419","CLASSIFICATION_TYPE":"U","BSTAR":"-0.00876420000000"},{"OBJECT_TYPE":"PAYLOAD","OBJECT_NAME":"STARLINK-5446","RCS_SIZE":null,"NORAD_CAT_ID":"54789","PERIOD":"90.261","FILE":"3725038","REF_FRAME":"TEME","ECCENTRICITY":"0.00428080","LAUNCH_DATE":"2022-12-17","SEMIMAJOR_AXIS":"6665.401","ELEMENT_SET_NO":"999","OBJECT_ID":"2022-175AH","MEAN_MOTION_DDOT":"0.0000286060000","INCLINATION":"53.2135","DECAY_DATE":null,"MEAN_ELEMENT_THEORY":"SGP4","REV_AT_EPOCH":"130","MEAN_MOTION":"15.95377001","RA_OF_ASC_NODE":"250.6706","ARG_OF_PERICENTER":"90.0427","CLASSIFICATION_TYPE":"U","BSTAR":"0.00048013000000","TIME_SYSTEM":"UTC","TLE_LINE2":"2 54789  53.2135 250.6706 0042808  90.0427 231.2076 15.95377001  1307","MEAN_MOTION_DOT":"0.00211321","GP_ID":"221697949","PERIAPSIS":"258.733","EPOCH":"2022-12-28T22:00:00.999936","TLE_LINE1":"1 54789U 22175AH  22362.91667824  .00211321  28606-4  48013-3 0  9993","MEAN_ANOMALY":"231.2076","APOAPSIS":"315.799","CENTER_NAME":"EARTH","COUNTRY_CODE":"US","SITE":"AFETR","EPHEMERIS_TYPE":"0"},{"MEAN_MOTION_DDOT":"0.0000000000000","INCLINATION":"53.2173","DECAY_DATE":null,"MEAN_ELEMENT_THEORY":"SGP4","REV_AT_EPOCH":"130","MEAN_MOTION":"15.75217651","FILE":"3725038","REF_FRAME":"TEME","ECCENTRICITY":"0.00015370","LAUNCH_DATE":"2022-12-17","SEMIMAJOR_AXIS":"6722.149","ELEMENT_SET_NO":"999","OBJECT_ID":"2022-175AJ","NORAD_CAT_ID":"54790","PERIOD":"91.416","OBJECT_TYPE":"PAYLOAD","OBJECT_NAME":"STARLINK-5445","RCS_SIZE":null,"MEAN_ANOMALY":"40.7418","APOAPSIS":"345.047","CENTER_NAME":"EARTH","COUNTRY_CODE":"US","SITE":"AFETR","EPHEMERIS_TYPE":"0","GP_ID":"221698158","PERIAPSIS":"342.981","EPOCH":"2022-12-28T22:00:00.999936","TLE_LINE1":"1 54790U 22175AJ  22362.91667824 -.01186840  00000-0 -87249-2 0  9992","TIME_SYSTEM":"UTC","TLE_LINE2":"2 54790  53.2173 251.1740 0001537  36.5835  40.7418 15.75217651  1302","MEAN_MOTION_DOT":"-0.01186840","RA_OF_ASC_NODE":"251.1740","ARG_OF_PERICENTER":"36.5835","BSTAR":"-0.00872490000000","CLASSIFICATION_TYPE":"U"},{"MEAN_MOTION_DDOT":"0.0000000000000","INCLINATION":"53.2172","MEAN_MOTION":"15.75139565","REV_AT_EPOCH":"130","MEAN_ELEMENT_THEORY":"SGP4","DECAY_DATE":null,"LAUNCH_DATE":"2022-12-17","SEMIMAJOR_AXIS":"6722.371","ECCENTRICITY":"0.00011530","REF_FRAME":"TEME","FILE":"3725038","OBJECT_ID":"2022-175AK","ELEMENT_SET_NO":"999","NORAD_CAT_ID":"54791","PERIOD":"91.420","OBJECT_NAME":"STARLINK-5425","OBJECT_TYPE":"PAYLOAD","RCS_SIZE":null,"APOAPSIS":"345.011","MEAN_ANOMALY":"14.0743","EPHEMERIS_TYPE":"0","SITE":"AFETR","COUNTRY_CODE":"US","CENTER_NAME":"EARTH","GP_ID":"221698359","TLE_LINE1":"1 54791U 22175AK  22362.91667824 -.01193792  00000-0 -88144-2 0  9992","PERIAPSIS":"343.461","EPOCH":"2022-12-28T22:00:00.999936","TLE_LINE2":"2 54791  53.2172 251.1791 0001153  60.4948  14.0743 15.75139565  1305","TIME_SYSTEM":"UTC","MEAN_MOTION_DOT":"-0.01193792","RA_OF_ASC_NODE":"251.1791","BSTAR":"-0.00881440000000","CLASSIFICATION_TYPE":"U","ARG_OF_PERICENTER":"60.4948"}];
